{
  "type": "FeatureCollection",
  "features": [
    {
      "type": "Feature",
      "properties": {
        "norad_id": 66174,
        "name": "HTV-X1",
        "group": "stations",
        "lat": 40.13256665125832,
        "lon": 126.23461815889189,
        "alt_km": 413.04586602194286,
        "timestamp": "2025-12-24T11:32:58.752716+00:00",
        "meta_object_name": "HTV-X1",
        "meta_object_id": "2025-241A",
        "meta_epoch": "2025-12-23T18:17:18.636000",
        "meta_mean_motion": 15.49761422,
        "meta_eccentricity": 0.00031718,
        "meta_inclination": 51.6321,
        "meta_ra_of_asc_node": 87.8933,
        "meta_arg_of_pericenter": 292.1344,
        "meta_mean_anomaly": 67.9308,
        "meta_ephemeris_type": 0,
        "meta_classification_type": "U",
        "meta_norad_cat_id": 66174,
        "meta_element_set_no": 999,
        "meta_rev_at_epoch": 51,
        "meta_bstar": 0.00020966669,
        "meta_mean_motion_dot": 0.00011429,
        "meta_mean_motion_ddot": 0,
        "tle_line1": "1 66174U 25241A   25357.76202125  .00011429  00000+0  20967-3 0  9998",
        "tle_line2": "2 66174  51.6321  87.8933 0003171 292.1344  67.9308 15.49761422   519"
      },
      "geometry": {
        "type": "Point",
        "coordinates": [
          126.23461815889189,
          40.13256665125832
        ]
      }
    },
    {
      "type": "Feature",
      "properties": {
        "norad_id": 66515,
        "name": "SZ-21 MODULE",
        "group": "stations",
        "lat": -28.697681341324756,
        "lon": -93.90665163583418,
        "alt_km": 377.8604726907497,
        "timestamp": "2025-12-24T11:32:58.752727+00:00",
        "meta_object_name": "SZ-21 MODULE",
        "meta_object_id": "2025-246C",
        "meta_epoch": "2025-12-23T06:36:43.308864",
        "meta_mean_motion": 15.6302066,
        "meta_eccentricity": 0.00050381,
        "meta_inclination": 41.4773,
        "meta_ra_of_asc_node": 311.7518,
        "meta_arg_of_pericenter": 316.6622,
        "meta_mean_anomaly": 43.3822,
        "meta_ephemeris_type": 0,
        "meta_classification_type": "U",
        "meta_norad_cat_id": 66515,
        "meta_element_set_no": 999,
        "meta_rev_at_epoch": 609,
        "meta_bstar": 0.000303255,
        "meta_mean_motion_dot": 0.00028121,
        "meta_mean_motion_ddot": 0,
        "tle_line1": "1 66515U 25246C   25357.27550126  .00028121  00000+0  30326-3 0  9992",
        "tle_line2": "2 66515  41.4773 311.7518 0005038 316.6622  43.3822 15.63020660  6095"
      },
      "geometry": {
        "type": "Point",
        "coordinates": [
          -93.90665163583418,
          -28.697681341324756
        ]
      }
    },
    {
      "type": "Feature",
      "properties": {
        "norad_id": 66645,
        "name": "SHENZHOU-22",
        "group": "stations",
        "lat": -41.048697748717935,
        "lon": -154.18500015766546,
        "alt_km": 395.2567272545539,
        "timestamp": "2025-12-24T11:32:58.752737+00:00",
        "meta_object_name": "SHENZHOU-22",
        "meta_object_id": "2025-272A",
        "meta_epoch": "2025-12-23T22:08:03.098976",
        "meta_mean_motion": 15.5961343,
        "meta_eccentricity": 0.00080636,
        "meta_inclination": 41.4684,
        "meta_ra_of_asc_node": 308.7959,
        "meta_arg_of_pericenter": 129.7983,
        "meta_mean_anomaly": 230.3567,
        "meta_ephemeris_type": 0,
        "meta_classification_type": "U",
        "meta_norad_cat_id": 66645,
        "meta_element_set_no": 999,
        "meta_rev_at_epoch": 26550,
        "meta_bstar": 0.00017429265,
        "meta_mean_motion_dot": 0.0001399,
        "meta_mean_motion_ddot": 0,
        "tle_line1": "1 66645U 25272A   25357.92225809  .00013990  00000+0  17429-3 0  9991",
        "tle_line2": "2 66645  41.4684 308.7959 0008063 129.7983 230.3567 15.59613430265504"
      },
      "geometry": {
        "type": "Point",
        "coordinates": [
          -154.18500015766546,
          -41.048697748717935
        ]
      }
    },
    {
      "type": "Feature",
      "properties": {
        "norad_id": 66664,
        "name": "SOYUZ-MS 28",
        "group": "stations",
        "lat": 40.132573584871146,
        "lon": 126.23463078314946,
        "alt_km": 413.0462106316818,
        "timestamp": "2025-12-24T11:32:58.752747+00:00",
        "meta_object_name": "SOYUZ-MS 28",
        "meta_object_id": "2025-275A",
        "meta_epoch": "2025-12-23T18:17:18.636000",
        "meta_mean_motion": 15.49761422,
        "meta_eccentricity": 0.0003172,
        "meta_inclination": 51.6321,
        "meta_ra_of_asc_node": 87.8933,
        "meta_arg_of_pericenter": 292.1344,
        "meta_mean_anomaly": 67.9308,
        "meta_ephemeris_type": 0,
        "meta_classification_type": "U",
        "meta_norad_cat_id": 66664,
        "meta_element_set_no": 999,
        "meta_rev_at_epoch": 415,
        "meta_bstar": 0.00020967,
        "meta_mean_motion_dot": 0.00011429,
        "meta_mean_motion_ddot": 0,
        "tle_line1": "1 66664U 25275A   25357.76202125  .00011429  00000+0  20967-3 0  9999",
        "tle_line2": "2 66664  51.6321  87.8933 0003172 292.1344  67.9308 15.49761422  4158"
      },
      "geometry": {
        "type": "Point",
        "coordinates": [
          126.23463078314946,
          40.132573584871146
        ]
      }
    },
    {
      "type": "Feature",
      "properties": {
        "norad_id": 66906,
        "name": "1998-067XS",
        "group": "stations",
        "lat": 32.602931799332666,
        "lon": -126.28512933256296,
        "alt_km": 410.08677323699976,
        "timestamp": "2025-12-24T11:32:58.752757+00:00",
        "meta_object_name": "1998-067XS",
        "meta_object_id": "1998-067XS",
        "meta_epoch": "2025-12-23T13:19:00.111360",
        "meta_mean_motion": 15.51136039,
        "meta_eccentricity": 0.00028154,
        "meta_inclination": 51.6316,
        "meta_ra_of_asc_node": 88.7613,
        "meta_arg_of_pericenter": 256.8779,
        "meta_mean_anomaly": 103.1896,
        "meta_ephemeris_type": 0,
        "meta_classification_type": "U",
        "meta_norad_cat_id": 66906,
        "meta_element_set_no": 999,
        "meta_rev_at_epoch": 329,
        "meta_bstar": 0.00048512679,
        "meta_mean_motion_dot": 0.0002847,
        "meta_mean_motion_ddot": 0,
        "tle_line1": "1 66906U 98067XS  25357.55486240  .00028470  00000+0  48513-3 0  9997",
        "tle_line2": "2 66906  51.6316  88.7613 0002815 256.8779 103.1896 15.51136039  3290"
      },
      "geometry": {
        "type": "Point",
        "coordinates": [
          -126.28512933256296,
          32.602931799332666
        ]
      }
    },
    {
      "type": "Feature",
      "properties": {
        "norad_id": 66907,
        "name": "1998-067XT",
        "group": "stations",
        "lat": -20.218372450618624,
        "lon": -79.01968795665852,
        "alt_km": 411.23706347489224,
        "timestamp": "2025-12-24T11:32:58.752767+00:00",
        "meta_object_name": "1998-067XT",
        "meta_object_id": "1998-067XT",
        "meta_epoch": "2025-12-23T11:29:49.841376",
        "meta_mean_motion": 15.52745506,
        "meta_eccentricity": 0.0003882,
        "meta_inclination": 51.6313,
        "meta_ra_of_asc_node": 89.0045,
        "meta_arg_of_pericenter": 291.7662,
        "meta_mean_anomaly": 68.2915,
        "meta_ephemeris_type": 0,
        "meta_classification_type": "U",
        "meta_norad_cat_id": 66907,
        "meta_element_set_no": 999,
        "meta_rev_at_epoch": 328,
        "meta_bstar": 0.0010348952,
        "meta_mean_motion_dot": 0.00065231,
        "meta_mean_motion_ddot": 0,
        "tle_line1": "1 66907U 98067XT  25357.47904909  .00065231  00000+0  10349-2 0  9997",
        "tle_line2": "2 66907  51.6313  89.0045 0003882 291.7662  68.2915 15.52745506  3283"
      },
      "geometry": {
        "type": "Point",
        "coordinates": [
          -79.01968795665852,
          -20.218372450618624
        ]
      }
    },
    {
      "type": "Feature",
      "properties": {
        "norad_id": 66908,
        "name": "1998-067XU",
        "group": "stations",
        "lat": -24.553256698465542,
        "lon": -74.7772493716424,
        "alt_km": 410.95735114498984,
        "timestamp": "2025-12-24T11:32:58.752778+00:00",
        "meta_object_name": "1998-067XU",
        "meta_object_id": "1998-067XU",
        "meta_epoch": "2025-12-23T11:28:24.726144",
        "meta_mean_motion": 15.52842233,
        "meta_eccentricity": 0.00039209,
        "meta_inclination": 51.6312,
        "meta_ra_of_asc_node": 88.9976,
        "meta_arg_of_pericenter": 289.9814,
        "meta_mean_anomaly": 70.0754,
        "meta_ephemeris_type": 0,
        "meta_classification_type": "U",
        "meta_norad_cat_id": 66908,
        "meta_element_set_no": 999,
        "meta_rev_at_epoch": 328,
        "meta_bstar": 0.0010206619,
        "meta_mean_motion_dot": 0.00064549,
        "meta_mean_motion_ddot": 0,
        "tle_line1": "1 66908U 98067XU  25357.47806396  .00064549  00000+0  10207-2 0  9993",
        "tle_line2": "2 66908  51.6312  88.9976 0003920 289.9814  70.0754 15.52842233  3282"
      },
      "geometry": {
        "type": "Point",
        "coordinates": [
          -74.7772493716424,
          -24.553256698465542
        ]
      }
    }
  ]
}